STARLINK-3545           
1 51855U 22022D   26068.30434210  .00002979  00000+0  20509-3 0  9996
2 51855  53.2201  20.7719 0001180  82.2196 277.8930 15.08856005222913
DISKSAT A               
1 67222U 25305D   26068.54789610  .00013824  00000+0  90452-3 0  9996
2 67222  45.0023 251.6019 0004082 318.1929  41.8634 15.07741062 12266
